{"type": "FeatureCollection", "features": [ {"type": "Feature", "properties": {"norad_id": 64902, "name": "CO3D 2", "group": "resource", "lat": 61.28117508236047, "lon": -93.384252183481, "alt_km": 499.023565492118, "timestamp": "2025-12-22T16:55:17.108239+00:00", "meta": {"OBJECT_NAME": "CO3D 2", "OBJECT_ID": "2025-156D", "EPOCH": "2025-12-21T16:42:32.405760", "MEAN_MOTION": 15.20195819, "ECCENTRICITY": 7.56e-05, "INCLINATION": 97.434, "RA_OF_ASC_NODE": 71.8347, "ARG_OF_PERICENTER": 63.7971, "MEAN_ANOMALY": 296.3342, "EPHEMERIS_TYPE": 0, "CLASSIFICATION_TYPE": "U", "NORAD_CAT_ID": 64902, "ELEMENT_SET_NO": 999, "REV_AT_EPOCH": 2256, "BSTAR": 0.00013571365, "MEAN_MOTION_DOT": 2.871e-05, "MEAN_MOTION_DDOT": 0}, "tle": {"line1": "1 64902U 25156D   25355.69620840  .00002871  00000+0  13571-3 0  9992", "line2": "2 64902  97.4340  71.8347 0000756  63.7971 296.3342 15.20195819 22566"}}, "geometry": {"type": "Point", "coordinates": [-93.384252183481, 61.28117508236047]}}, {"type": "Feature", "properties": {"norad_id": 64903, "name": "CO3D 1", "group": "resource", "lat": 62.09637662963424, "lon": -92.89792961807692, "alt_km": 498.6547305290924, "timestamp": "2025-12-22T16:55:17.108250+00:00", "meta": {"OBJECT_NAME": "CO3D 1", "OBJECT_ID": "2025-156E", "EPOCH": "2025-12-22T05:21:02.589696", "MEAN_MOTION": 15.20195023, "ECCENTRICITY": 9.814e-05, "INCLINATION": 97.4338, "RA_OF_ASC_NODE": 72.3527, "ARG_OF_PERICENTER": 84.5744, "MEAN_ANOMALY": 275.5604, "EPHEMERIS_TYPE": 0, "CLASSIFICATION_TYPE": "U", "NORAD_CAT_ID": 64903, "ELEMENT_SET_NO": 999, "REV_AT_EPOCH": 2264, "BSTAR": 0.00033001475, "MEAN_MOTION_DOT": 7.082e-05, "MEAN_MOTION_DDOT": 0}, "tle": {"line1": "1 64903U 25156E   25356.22294664  .00007082  00000+0  33001-3 0  9993", "line2": "2 64903  97.4338  72.3527 0000981  84.5744 275.5604 15.20195023 22645"}}, "geometry": {"type": "Point", "coordinates": [-92.89792961807692, 62.09637662963424]}}, {"type": "Feature", "properties": {"norad_id": 66514, "name": "SENTINEL-6B", "group": "resource", "lat": -15.004643185014217, "lon": 134.87679890952342, "alt_km": 1337.9397094903225, "timestamp": "2025-12-22T16:55:17.108261+00:00", "meta": {"OBJECT_NAME": "SENTINEL-6B", "OBJECT_ID": "2025-264A", "EPOCH": "2025-12-12T06:01:21.427680", "MEAN_MOTION": 12.81479575, "ECCENTRICITY": 0.0007848, "INCLINATION": 66.0385, "RA_OF_ASC_NODE": 163.4531, "ARG_OF_PERICENTER": 270.1375, "MEAN_ANOMALY": 89.8741, "EPHEMERIS_TYPE": 0, "CLASSIFICATION_TYPE": "U", "NORAD_CAT_ID": 66514, "ELEMENT_SET_NO": 999, "REV_AT_EPOCH": 322, "BSTAR": 0.00018195, "MEAN_MOTION_DOT": -1.9e-07, "MEAN_MOTION_DDOT": 0}, "tle": {"line1": "1 66514U 25264A   25346.25094245 -.00000019  00000+0  18195-3 0  9999", "line2": "2 66514  66.0385 163.4531 0007848 270.1375  89.8741 12.81479575  3220"}}, "geometry": {"type": "Point", "coordinates": [134.87679890952342, -15.004643185014217]}}]}